{
  "type": "FeatureCollection",
  "features": [
    {
      "type": "Feature",
      "properties": {
        "norad_id": 35616,
        "name": "IRIDIUM 33 DEB",
        "group": "iridium-33-debris",
        "lat": 32.73138682162213,
        "lon": 165.17078913164337,
        "alt_km": 616.518490392199,
        "timestamp": "2025-12-08T21:31:05.052070+00:00",
        "meta_object_name": "IRIDIUM 33 DEB",
        "meta_object_id": "1997-051QN",
        "meta_epoch": "2025-12-08T11:07:50.751840",
        "meta_mean_motion": 14.81642207,
        "meta_eccentricity": 0.00095137,
        "meta_inclination": 86.3551,
        "meta_ra_of_asc_node": 347.7164,
        "meta_arg_of_pericenter": 179.1989,
        "meta_mean_anomaly": 180.925,
        "meta_ephemeris_type": 0,
        "meta_classification_type": "U",
        "meta_norad_cat_id": 35616,
        "meta_element_set_no": 999,
        "meta_rev_at_epoch": 87511,
        "meta_bstar": 0.0020633393,
        "meta_mean_motion_dot": 0.00016284,
        "meta_mean_motion_ddot": 0,
        "tle_line1": "1 35616U 97051QN  25342.46378185  .00016284  00000+0  20633-2 0  9997",
        "tle_line2": "2 35616  86.3551 347.7164 0009513 179.1989 180.9250 14.81642207875117"
      },
      "geometry": {
        "type": "Point",
        "coordinates": [
          165.17078913164337,
          32.73138682162213
        ]
      }
    },
    {
      "type": "Feature",
      "properties": {
        "norad_id": 35618,
        "name": "IRIDIUM 33 DEB",
        "group": "iridium-33-debris",
        "lat": -40.51147494970685,
        "lon": -7.952190448280826,
        "alt_km": 719.1589894369299,
        "timestamp": "2025-12-08T21:31:05.052081+00:00",
        "meta_object_name": "IRIDIUM 33 DEB",
        "meta_object_id": "1997-051QQ",
        "meta_epoch": "2025-12-05T07:42:53.148672",
        "meta_mean_motion": 14.52258119,
        "meta_eccentricity": 0.00302089,
        "meta_inclination": 86.3407,
        "meta_ra_of_asc_node": 356.7447,
        "meta_arg_of_pericenter": 46.3254,
        "meta_mean_anomaly": 314.0448,
        "meta_ephemeris_type": 0,
        "meta_classification_type": "U",
        "meta_norad_cat_id": 35618,
        "meta_element_set_no": 999,
        "meta_rev_at_epoch": 65286,
        "meta_bstar": 0.00091388234,
        "meta_mean_motion_dot": 3.753e-05,
        "meta_mean_motion_ddot": 0,
        "tle_line1": "1 35618U 97051QQ  25339.32144848  .00003753  00000+0  91388-3 0  9990",
        "tle_line2": "2 35618  86.3407 356.7447 0030208  46.3254 314.0448 14.52258119652865"
      },
      "geometry": {
        "type": "Point",
        "coordinates": [
          -7.952190448280826,
          -40.51147494970685
        ]
      }
    },
    {
      "type": "Feature",
      "properties": {
        "norad_id": 35620,
        "name": "IRIDIUM 33 DEB",
        "group": "iridium-33-debris",
        "lat": 40.55444836158777,
        "lon": 35.975104910076034,
        "alt_km": 830.576351867463,
        "timestamp": "2025-12-08T21:31:05.052091+00:00",
        "meta_object_name": "IRIDIUM 33 DEB",
        "meta_object_id": "1997-051QS",
        "meta_epoch": "2025-12-08T09:10:03.259488",
        "meta_mean_motion": 14.37817712,
        "meta_eccentricity": 0.01428944,
        "meta_inclination": 86.3872,
        "meta_ra_of_asc_node": 219.2913,
        "meta_arg_of_pericenter": 273.357,
        "meta_mean_anomaly": 85.129,
        "meta_ephemeris_type": 0,
        "meta_classification_type": "U",
        "meta_norad_cat_id": 35620,
        "meta_element_set_no": 999,
        "meta_rev_at_epoch": 59903,
        "meta_bstar": 0.0061742604,
        "meta_mean_motion_dot": 0.00020996,
        "meta_mean_motion_ddot": 0,
        "tle_line1": "1 35620U 97051QS  25342.38198217  .00020996  00000+0  61743-2 0  9991",
        "tle_line2": "2 35620  86.3872 219.2913 0142894 273.3570  85.1290 14.37817712599036"
      },
      "geometry": {
        "type": "Point",
        "coordinates": [
          35.975104910076034,
          40.55444836158777
        ]
      }
    },
    {
      "type": "Feature",
      "properties": {
        "norad_id": 35622,
        "name": "IRIDIUM 33 DEB",
        "group": "iridium-33-debris",
        "lat": 29.358461631843895,
        "lon": -92.36500709267091,
        "alt_km": 548.4731911135123,
        "timestamp": "2025-12-08T21:31:05.052102+00:00",
        "meta_object_name": "IRIDIUM 33 DEB",
        "meta_object_id": "1997-051QU",
        "meta_epoch": "2025-12-07T06:08:10.382208",
        "meta_mean_motion": 15.0368423,
        "meta_eccentricity": 0.00091825,
        "meta_inclination": 86.2049,
        "meta_ra_of_asc_node": 266.3018,
        "meta_arg_of_pericenter": 353.8818,
        "meta_mean_anomaly": 157.8722,
        "meta_ephemeris_type": 0,
        "meta_classification_type": "U",
        "meta_norad_cat_id": 35622,
        "meta_element_set_no": 999,
        "meta_rev_at_epoch": 87277,
        "meta_bstar": 0.0074565803,
        "meta_mean_motion_dot": 0.00103587,
        "meta_mean_motion_ddot": 0,
        "tle_line1": "1 35622U 97051QU  25341.25567572  .00103587  00000+0  74566-2 0  9997",
        "tle_line2": "2 35622  86.2049 266.3018 0009182 353.8818 157.8722 15.03684230872776"
      },
      "geometry": {
        "type": "Point",
        "coordinates": [
          -92.36500709267091,
          29.358461631843895
        ]
      }
    },
    {
      "type": "Feature",
      "properties": {
        "norad_id": 35628,
        "name": "IRIDIUM 33 DEB",
        "group": "iridium-33-debris",
        "lat": 6.262123766077954,
        "lon": 11.190042994058,
        "alt_km": 663.690191712305,
        "timestamp": "2025-12-08T21:31:05.052113+00:00",
        "meta_object_name": "IRIDIUM 33 DEB",
        "meta_object_id": "1997-051RA",
        "meta_epoch": "2025-12-08T08:23:51.110304",
        "meta_mean_motion": 14.67483029,
        "meta_eccentricity": 0.00110057,
        "meta_inclination": 86.3575,
        "meta_ra_of_asc_node": 11.0332,
        "meta_arg_of_pericenter": 358.0388,
        "meta_mean_anomaly": 2.0781,
        "meta_ephemeris_type": 0,
        "meta_classification_type": "U",
        "meta_norad_cat_id": 35628,
        "meta_element_set_no": 999,
        "meta_rev_at_epoch": 86382,
        "meta_bstar": 0.0017611926,
        "meta_mean_motion_dot": 0.0001001,
        "meta_mean_motion_ddot": 0,
        "tle_line1": "1 35628U 97051RA  25342.34989711  .00010010  00000+0  17612-2 0  9994",
        "tle_line2": "2 35628  86.3575  11.0332 0011005 358.0388   2.0781 14.67483029863821"
      },
      "geometry": {
        "type": "Point",
        "coordinates": [
          11.190042994058,
          6.262123766077954
        ]
      }
    },
    {
      "type": "Feature",
      "properties": {
        "norad_id": 35631,
        "name": "IRIDIUM 33 DEB",
        "group": "iridium-33-debris",
        "lat": -2.269061270105643,
        "lon": -157.22410420214254,
        "alt_km": 729.9596648810575,
        "timestamp": "2025-12-08T21:31:05.052123+00:00",
        "meta_object_name": "IRIDIUM 33 DEB",
        "meta_object_id": "1997-051RD",
        "meta_epoch": "2025-12-06T21:23:47.071392",
        "meta_mean_motion": 14.47286545,
        "meta_eccentricity": 0.00185223,
        "meta_inclination": 86.3689,
        "meta_ra_of_asc_node": 23.4943,
        "meta_arg_of_pericenter": 135.5581,
        "meta_mean_anomaly": 46.1978,
        "meta_ephemeris_type": 0,
        "meta_classification_type": "U",
        "meta_norad_cat_id": 35631,
        "meta_element_set_no": 999,
        "meta_rev_at_epoch": 87112,
        "meta_bstar": 0.00062002851,
        "meta_mean_motion_dot": 2.292e-05,
        "meta_mean_motion_ddot": 0,
        "tle_line1": "1 35631U 97051RD  25340.89151703  .00002292  00000+0  62003-3 0  9996",
        "tle_line2": "2 35631  86.3689  23.4943 0018522 135.5581  46.1978 14.47286545871121"
      },
      "geometry": {
        "type": "Point",
        "coordinates": [
          -157.22410420214254,
          -2.269061270105643
        ]
      }
    },
    {
      "type": "Feature",
      "properties": {
        "norad_id": 35680,
        "name": "IRIDIUM 33 DEB",
        "group": "iridium-33-debris",
        "lat": 22.99148585008988,
        "lon": -158.4337029736173,
        "alt_km": 896.6001174182647,
        "timestamp": "2025-12-08T21:31:05.052134+00:00",
        "meta_object_name": "IRIDIUM 33 DEB",
        "meta_object_id": "1997-051RJ",
        "meta_epoch": "2025-12-07T09:19:47.246592",
        "meta_mean_motion": 14.20776466,
        "meta_eccentricity": 0.01503971,
        "meta_inclination": 86.1018,
        "meta_ra_of_asc_node": 23.8914,
        "meta_arg_of_pericenter": 295.6462,
        "meta_mean_anomaly": 74.8204,
        "meta_ephemeris_type": 0,
        "meta_classification_type": "U",
        "meta_norad_cat_id": 35680,
        "meta_element_set_no": 999,
        "meta_rev_at_epoch": 60625,
        "meta_bstar": 0.0056071361,
        "meta_mean_motion_dot": 0.00013594,
        "meta_mean_motion_ddot": 0,
        "tle_line1": "1 35680U 97051RJ  25341.38874128  .00013594  00000+0  56071-2 0  9992",
        "tle_line2": "2 35680  86.1018  23.8914 0150397 295.6462  74.8204 14.20776466606251"
      },
      "geometry": {
        "type": "Point",
        "coordinates": [
          -158.4337029736173,
          22.99148585008988
        ]
      }
    }
  ]
}